{
    "links": {
        "self": "http://www.neowsapp.com/rest/v1/neo/3760529?api_key=iIulBulltgU6a56xZRHN4H3l9WmuAYTsLGpBGhQ2"
    },
    "id": "3760529",
    "neo_reference_id": "3760529",
    "name": "(2016 TR11)",
    "designation": "2016 TR11",
    "nasa_jpl_url": "http://ssd.jpl.nasa.gov/sbdb.cgi?sstr=3760529",
    "absolute_magnitude_h": 22.1,
    "estimated_diameter": {
        "kilometers": {
            "estimated_diameter_min": 0.1010543415,
            "estimated_diameter_max": 0.2259643771
        },
        "meters": {
            "estimated_diameter_min": 101.054341542,
            "estimated_diameter_max": 225.9643771094
        },
        "miles": {
            "estimated_diameter_min": 0.0627922373,
            "estimated_diameter_max": 0.140407711
        },
        "feet": {
            "estimated_diameter_min": 331.5431259047,
            "estimated_diameter_max": 741.3529669956
        }
    },
    "is_potentially_hazardous_asteroid": false,
    "close_approach_data": [
        {
            "close_approach_date": "2013-02-23",
            "close_approach_date_full": "2013-Feb-23 09:26",
            "epoch_date_close_approach": 1361611560000,
            "relative_velocity": {
                "kilometers_per_second": "13.1785002822",
                "kilometers_per_hour": "47442.6010158588",
                "miles_per_hour": "29478.9872812152"
            },
            "miss_distance": {
                "astronomical": "0.0818678355",
                "lunar": "31.8465880095",
                "kilometers": "12247253.812310385",
                "miles": "7610090.634377913"
            },
            "orbiting_body": "Mars"
        },
        {
            "close_approach_date": "2016-10-22",
            "close_approach_date_full": "2016-Oct-22 09:31",
            "epoch_date_close_approach": 1477128660000,
            "relative_velocity": {
                "kilometers_per_second": "15.4821565289",
                "kilometers_per_hour": "55735.7635039237",
                "miles_per_hour": "34632.0359394242"
            },
            "miss_distance": {
                "astronomical": "0.1264729823",
                "lunar": "49.1979901147",
                "kilometers": "18920088.764627701",
                "miles": "11756398.0069202338"
            },
            "orbiting_body": "Earth"
        },
        {
            "close_approach_date": "2118-10-24",
            "close_approach_date_full": "2118-Oct-24 08:49",
            "epoch_date_close_approach": 4696044540000,
            "relative_velocity": {
                "kilometers_per_second": "15.696508621",
                "kilometers_per_hour": "56507.4310356155",
                "miles_per_hour": "35111.5201343245"
            },
            "miss_distance": {
                "astronomical": "0.1324582169",
                "lunar": "51.5262463741",
                "kilometers": "19815467.112238003",
                "miles": "12312760.3132623214"
            },
            "orbiting_body": "Earth"
        },
        {
            "close_approach_date": "2182-04-20",
            "close_approach_date_full": "2182-Apr-20 13:48",
            "epoch_date_close_approach": 6699592080000,
            "relative_velocity": {
                "kilometers_per_second": "26.0671298851",
                "kilometers_per_hour": "93841.667586392",
                "miles_per_hour": "58309.5628400001"
            },
            "miss_distance": {
                "astronomical": "0.4673012202",
                "lunar": "181.7801746578",
                "kilometers": "69907267.190320974",
                "miles": "43438361.5684744812"
            },
            "orbiting_body": "Earth"
        },
        {
            "close_approach_date": "2183-10-16",
            "close_approach_date_full": "2183-Oct-16 09:23",
            "epoch_date_close_approach": 6746577780000,
            "relative_velocity": {
                "kilometers_per_second": "20.2877490401",
                "kilometers_per_hour": "73035.8965444504",
                "miles_per_hour": "45381.6658278558"
            },
            "miss_distance": {
                "astronomical": "0.2737466119",
                "lunar": "106.4874320291",
                "kilometers": "40951910.059956653",
                "miles": "25446336.9489336914"
            },
            "orbiting_body": "Earth"
        }
    ],
    "orbital_data": {
        "orbit_id": "3",
        "orbit_determination_date": "2017-04-06 08:23:15",
        "first_observation_date": "2016-09-30",
        "last_observation_date": "2016-10-09",
        "data_arc_in_days": 9,
        "observations_used": 30,
        "orbit_uncertainty": "8",
        "minimum_orbit_intersection": ".0740064",
        "jupiter_tisserand_invariant": "4.502",
        "epoch_osculation": "2457667.5",
        "eccentricity": ".473713981895277",
        "semi_major_axis": "1.455945815522789",
        "inclination": "4.925949309726156",
        "ascending_node_longitude": "96.49097905778181",
        "orbital_period": "641.6766643537554",
        "perihelion_distance": ".766243925827722",
        "perihelion_argument": "11.88452512994456",
        "aphelion_distance": "2.145647705217856",
        "perihelion_time": "2457733.536607090365",
        "mean_anomaly": "322.9514678136631",
        "mean_motion": ".5610302197331155",
        "equinox": "J2000",
        "orbit_class": {
            "orbit_class_type": "APO",
            "orbit_class_description": "Near-Earth asteroid orbits which cross the Earth’s orbit similar to that of 1862 Apollo",
            "orbit_class_range": "a (semi-major axis) > 1.0 AU; q (perihelion) < 1.017 AU"
        }
    },
    "is_sentry_object": false
}